[{"OBJECT_NAME":"STARLINK-32613","OBJECT_ID":"2024-210M","EPOCH":"2026-03-09T22:00:01.999584","MEAN_MOTION":15.27577743,"ECCENTRICITY":0.00014453,"INCLINATION":42.9998,"RA_OF_ASC_NODE":178.8665,"ARG_OF_PERICENTER":269.8788,"MEAN_ANOMALY":351.0878,"EPHEMERIS_TYPE":0,"CLASSIFICATION_TYPE":"U","NORAD_CAT_ID":61970,"ELEMENT_SET_NO":999,"REV_AT_EPOCH":585,"BSTAR":0.00016239738,"MEAN_MOTION_DOT":4.209e-5,"MEAN_MOTION_DDOT":0},{"OBJECT_NAME":"FLOCK 4G-2","OBJECT_ID":"2025-009BE","EPOCH":"2026-03-09T15:53:23.273952","MEAN_MOTION":15.2767526,"ECCENTRICITY":0.00031811,"INCLINATION":97.4044,"RA_OF_ASC_NODE":151.2221,"ARG_OF_PERICENTER":329.2677,"MEAN_ANOMALY":30.8376,"EPHEMERIS_TYPE":0,"CLASSIFICATION_TYPE":"U","NORAD_CAT_ID":62661,"ELEMENT_SET_NO":999,"REV_AT_EPOCH":12132,"BSTAR":0.00051068481,"MEAN_MOTION_DOT":0.00013752,"MEAN_MOTION_DDOT":0}]
